{"type": "FeatureCollection", "features": [ {"type": "Feature", "properties": {"norad_id": 52912, "name": "GAOFEN-12 03", "group": "resource", "lat": 77.40171321487578, "lon": -150.75844778095464, "alt_km": 622.1554608123506, "timestamp": "2025-12-26T07:29:18.117557+00:00", "meta": {"OBJECT_NAME": "GAOFEN-12 03", "OBJECT_ID": "2022-069A", "EPOCH": "2025-12-25T21:23:22.979616", "MEAN_MOTION": 14.79639456, "ECCENTRICITY": 0.00017853, "INCLINATION": 97.8476, "RA_OF_ASC_NODE": 246.9364, "ARG_OF_PERICENTER": 47.4768, "MEAN_ANOMALY": 312.6595, "EPHEMERIS_TYPE": 0, "CLASSIFICATION_TYPE": "U", "NORAD_CAT_ID": 52912, "ELEMENT_SET_NO": 999, "REV_AT_EPOCH": 18898, "BSTAR": 0.00015227419, "MEAN_MOTION_DOT": 1.091e-05, "MEAN_MOTION_DDOT": 0}, "tle": {"line1": "1 52912U 22069A   25359.89123819  .00001091  00000+0  15227-3 0  9993", "line2": "2 52912  97.8476 246.9364 0001785  47.4768 312.6595 14.79639456188982"}}, "geometry": {"type": "Point", "coordinates": [-150.75844778095464, 77.40171321487578]}}, {"type": "Feature", "properties": {"norad_id": 54754, "name": "SWOT", "group": "resource", "lat": 34.38511477523475, "lon": 80.0181921958865, "alt_km": 890.632265589551, "timestamp": "2025-12-26T07:29:18.117567+00:00", "meta": {"OBJECT_NAME": "SWOT", "OBJECT_ID": "2022-173A", "EPOCH": "2025-12-25T22:13:32.483424", "MEAN_MOTION": 14.00168823, "ECCENTRICITY": 4.229e-05, "INCLINATION": 77.6108, "RA_OF_ASC_NODE": 269.1902, "ARG_OF_PERICENTER": 81.8433, "MEAN_ANOMALY": 278.2766, "EPHEMERIS_TYPE": 0, "CLASSIFICATION_TYPE": "U", "NORAD_CAT_ID": 54754, "ELEMENT_SET_NO": 999, "REV_AT_EPOCH": 15490, "BSTAR": 8.4660368e-05, "MEAN_MOTION_DOT": 1.22e-06, "MEAN_MOTION_DDOT": 0}, "tle": {"line1": "1 54754U 22173A   25359.92607041  .00000122  00000+0  84660-4 0  9995", "line2": "2 54754  77.6108 269.1902 0000422  81.8433 278.2766 14.00168823154900"}}, "geometry": {"type": "Point", "coordinates": [80.0181921958865, 34.38511477523475]}}, {"type": "Feature", "properties": {"norad_id": 57654, "name": "GAOFEN-12 04", "group": "resource", "lat": -72.58928478011181, "lon": 69.5346670862531, "alt_km": 638.2947792048926, "timestamp": "2025-12-26T07:29:18.117577+00:00", "meta": {"OBJECT_NAME": "GAOFEN-12 04", "OBJECT_ID": "2023-123A", "EPOCH": "2025-12-25T22:13:39.395424", "MEAN_MOTION": 14.79737085, "ECCENTRICITY": 0.00011999, "INCLINATION": 97.9129, "RA_OF_ASC_NODE": 275.4839, "ARG_OF_PERICENTER": 80.3987, "MEAN_ANOMALY": 279.7361, "EPHEMERIS_TYPE": 0, "CLASSIFICATION_TYPE": "U", "NORAD_CAT_ID": 57654, "ELEMENT_SET_NO": 999, "REV_AT_EPOCH": 12700, "BSTAR": 0.00019005341, "MEAN_MOTION_DOT": 1.377e-05, "MEAN_MOTION_DDOT": 0}, "tle": {"line1": "1 57654U 23123A   25359.92615041  .00001377  00000+0  19005-3 0  9995", "line2": "2 57654  97.9129 275.4839 0001199  80.3987 279.7361 14.79737085127005"}}, "geometry": {"type": "Point", "coordinates": [69.5346670862531, -72.58928478011181]}}, {"type": "Feature", "properties": {"norad_id": 59065, "name": "PARS 1", "group": "resource", "lat": 45.84083098030377, "lon": -36.22451612436083, "alt_km": 430.90729132071465, "timestamp": "2025-12-26T07:29:18.117587+00:00", "meta": {"OBJECT_NAME": "PARS 1", "OBJECT_ID": "2024-039Q", "EPOCH": "2025-12-25T23:29:51.383616", "MEAN_MOTION": 15.4127532, "ECCENTRICITY": 0.00114466, "INCLINATION": 97.4655, "RA_OF_ASC_NODE": 331.1961, "ARG_OF_PERICENTER": 31.5762, "MEAN_ANOMALY": 328.6169, "EPHEMERIS_TYPE": 0, "CLASSIFICATION_TYPE": "U", "NORAD_CAT_ID": 59065, "ELEMENT_SET_NO": 999, "REV_AT_EPOCH": 10192, "BSTAR": 0.00029654249, "MEAN_MOTION_DOT": 0.00012284, "MEAN_MOTION_DDOT": 0}, "tle": {"line1": "1 59065U 24039Q   25359.97906694  .00012284  00000+0  29654-3 0  9992", "line2": "2 59065  97.4655 331.1961 0011446  31.5762 328.6169 15.41275320101925"}}, "geometry": {"type": "Point", "coordinates": [-36.22451612436083, 45.84083098030377]}}, {"type": "Feature", "properties": {"norad_id": 59371, "name": "RESURS-P 4", "group": "resource", "lat": 68.830168511905, "lon": 145.57486566880675, "alt_km": 462.0873606056648, "timestamp": "2025-12-26T07:29:18.117597+00:00", "meta": {"OBJECT_NAME": "RESURS-P 4", "OBJECT_ID": "2024-061A", "EPOCH": "2025-12-25T23:10:24.701088", "MEAN_MOTION": 15.32201455, "ECCENTRICITY": 7.928e-05, "INCLINATION": 97.2563, "RA_OF_ASC_NODE": 306.0263, "ARG_OF_PERICENTER": 86.1569, "MEAN_ANOMALY": 273.9763, "EPHEMERIS_TYPE": 0, "CLASSIFICATION_TYPE": "U", "NORAD_CAT_ID": 59371, "ELEMENT_SET_NO": 999, "REV_AT_EPOCH": 9723, "BSTAR": 0.0001346315, "MEAN_MOTION_DOT": 4.109e-05, "MEAN_MOTION_DDOT": 0}, "tle": {"line1": "1 59371U 24061A   25359.96556367  .00004109  00000+0  13463-3 0  9992", "line2": "2 59371  97.2563 306.0263 0000792  86.1569 273.9763 15.32201455 97238"}}, "geometry": {"type": "Point", "coordinates": [145.57486566880675, 68.830168511905]}}, {"type": "Feature", "properties": {"norad_id": 59625, "name": "LEGION 1", "group": "resource", "lat": -64.5889121308002, "lon": 90.9774199115616, "alt_km": 521.4182037945257, "timestamp": "2025-12-26T07:29:18.117607+00:00", "meta": {"OBJECT_NAME": "LEGION 1", "OBJECT_ID": "2024-081A", "EPOCH": "2025-12-25T22:16:35.402592", "MEAN_MOTION": 15.16607291, "ECCENTRICITY": 0.00036252, "INCLINATION": 97.5193, "RA_OF_ASC_NODE": 74.4539, "ARG_OF_PERICENTER": 255.7187, "MEAN_ANOMALY": 104.3643, "EPHEMERIS_TYPE": 0, "CLASSIFICATION_TYPE": "U", "NORAD_CAT_ID": 59625, "ELEMENT_SET_NO": 999, "REV_AT_EPOCH": 9127, "BSTAR": 0.00024172223, "MEAN_MOTION_DOT": 4.656e-05, "MEAN_MOTION_DDOT": 0}, "tle": {"line1": "1 59625U 24081A   25359.92818753  .00004656  00000+0  24172-3 0  9998", "line2": "2 59625  97.5193  74.4539 0003625 255.7187 104.3643 15.16607291 91274"}}, "geometry": {"type": "Point", "coordinates": [90.9774199115616, -64.5889121308002]}}, {"type": "Feature", "properties": {"norad_id": 59626, "name": "LEGION 2", "group": "resource", "lat": 64.20145713421482, "lon": -89.21890722544609, "alt_km": 511.8682340087935, "timestamp": "2025-12-26T07:29:18.117617+00:00", "meta": {"OBJECT_NAME": "LEGION 2", "OBJECT_ID": "2024-081B", "EPOCH": "2025-12-25T21:28:59.062656", "MEAN_MOTION": 15.16620455, "ECCENTRICITY": 0.0005827, "INCLINATION": 97.5196, "RA_OF_ASC_NODE": 74.5092, "ARG_OF_PERICENTER": 236.9667, "MEAN_ANOMALY": 123.1006, "EPHEMERIS_TYPE": 0, "CLASSIFICATION_TYPE": "U", "NORAD_CAT_ID": 59626, "ELEMENT_SET_NO": 999, "REV_AT_EPOCH": 9127, "BSTAR": 0.00028927735, "MEAN_MOTION_DOT": 5.59e-05, "MEAN_MOTION_DDOT": 0}, "tle": {"line1": "1 59626U 24081B   25359.89512804  .00005590  00000+0  28928-3 0  9994", "line2": "2 59626  97.5196  74.5092 0005827 236.9667 123.1006 15.16620455 91272"}}, "geometry": {"type": "Point", "coordinates": [-89.21890722544609, 64.20145713421482]}}, {"type": "Feature", "properties": {"norad_id": 60182, "name": "ALOS-4 (DAICHI-4)", "group": "resource", "lat": 56.19274868870168, "lon": -73.03311866332261, "alt_km": 624.7146582882988, "timestamp": "2025-12-26T07:29:18.117627+00:00", "meta": {"OBJECT_NAME": "ALOS-4 (DAICHI-4)", "OBJECT_ID": "2024-123A", "EPOCH": "2025-12-25T22:49:08.009760", "MEAN_MOTION": 14.79473387, "ECCENTRICITY": 0.0001406, "INCLINATION": 97.9217, "RA_OF_ASC_NODE": 94.6093, "ARG_OF_PERICENTER": 100.7835, "MEAN_ANOMALY": 259.3535, "EPHEMERIS_TYPE": 0, "CLASSIFICATION_TYPE": "U", "NORAD_CAT_ID": 60182, "ELEMENT_SET_NO": 999, "REV_AT_EPOCH": 8026, "BSTAR": 0.00029642178, "MEAN_MOTION_DOT": 2.163e-05, "MEAN_MOTION_DDOT": 0}, "tle": {"line1": "1 60182U 24123A   25359.95078715  .00002163  00000+0  29642-3 0  9992", "line2": "2 60182  97.9217  94.6093 0001406 100.7835 259.3535 14.79473387 80261"}}, "geometry": {"type": "Point", "coordinates": [-73.03311866332261, 56.19274868870168]}}, {"type": "Feature", "properties": {"norad_id": 60452, "name": "LEGION 3", "group": "resource", "lat": -42.14256304715916, "lon": 122.2623459223324, "alt_km": 511.5843310286391, "timestamp": "2025-12-26T07:29:18.117637+00:00", "meta": {"OBJECT_NAME": "LEGION 3", "OBJECT_ID": "2024-146A", "EPOCH": "2025-12-25T22:28:27.545088", "MEAN_MOTION": 15.15893257, "ECCENTRICITY": 0.00157573, "INCLINATION": 45.0002, "RA_OF_ASC_NODE": 239.3809, "ARG_OF_PERICENTER": 268.8497, "MEAN_ANOMALY": 91.0576, "EPHEMERIS_TYPE": 0, "CLASSIFICATION_TYPE": "U", "NORAD_CAT_ID": 60452, "ELEMENT_SET_NO": 999, "REV_AT_EPOCH": 7573, "BSTAR": 0.00028466694, "MEAN_MOTION_DOT": 5.297e-05, "MEAN_MOTION_DDOT": 0}, "tle": {"line1": "1 60452U 24146A   25359.93642992  .00005297  00000+0  28467-3 0  9994", "line2": "2 60452  45.0002 239.3809 0015757 268.8497  91.0576 15.15893257 75739"}}, "geometry": {"type": "Point", "coordinates": [122.2623459223324, -42.14256304715916]}}, {"type": "Feature", "properties": {"norad_id": 60453, "name": "LEGION 4", "group": "resource", "lat": -42.11695977769346, "lon": -146.22349266563364, "alt_km": 525.5589250283147, "timestamp": "2025-12-26T07:29:18.117661+00:00", "meta": {"OBJECT_NAME": "LEGION 4", "OBJECT_ID": "2024-146B", "EPOCH": "2025-12-25T22:28:35.664960", "MEAN_MOTION": 15.15966646, "ECCENTRICITY": 0.00080045, "INCLINATION": 45.0397, "RA_OF_ASC_NODE": 331.1701, "ARG_OF_PERICENTER": 24.9456, "MEAN_ANOMALY": 335.1808, "EPHEMERIS_TYPE": 0, "CLASSIFICATION_TYPE": "U", "NORAD_CAT_ID": 60453, "ELEMENT_SET_NO": 999, "REV_AT_EPOCH": 7458, "BSTAR": 0.00033192724, "MEAN_MOTION_DOT": 6.222e-05, "MEAN_MOTION_DDOT": 0}, "tle": {"line1": "1 60453U 24146B   25359.93652390  .00006222  00000+0  33193-3 0  9999", "line2": "2 60453  45.0397 331.1701 0008004  24.9456 335.1808 15.15966646 74587"}}, "geometry": {"type": "Point", "coordinates": [-146.22349266563364, -42.11695977769346]}}]}